start=new Date('2022-07-04T00:00:00.000Z').valueOf();
sats=[{"MEAN_ANOMALY":"92.7536","COUNTRY_CODE":"US","ARG_OF_PERICENTER":"267.3270","GP_ID":"207358381","TLE_LINE1":"1 49147U 21082T   22184.88014092 -.00000682  00000-0 -51616-4 0  9998","MEAN_MOTION_DOT":"-0.00000682","CENTER_NAME":"EARTH","NORAD_CAT_ID":"49147","SEMIMAJOR_AXIS":"6955.181","MEAN_ELEMENT_THEORY":"SGP4","APOAPSIS":"579.184","INCLINATION":"70.0007","EPOCH":"2022-07-03T21:07:24.175488","MEAN_MOTION":"14.96718551","OBJECT_TYPE":"PAYLOAD","SITE":"AFWTR","MEAN_MOTION_DDOT":"0.0000000000000","RCS_SIZE":"LARGE","PERIOD":"96.210","DECAY_DATE":null,"LAUNCH_DATE":"2021-09-14","PERIAPSIS":"574.907","CLASSIFICATION_TYPE":"U","OBJECT_NAME":"STARLINK-3071","OBJECT_ID":"2021-082T","EPHEMERIS_TYPE":"0","FILE":"3507292","REF_FRAME":"TEME","TIME_SYSTEM":"UTC","BSTAR":"-0.00005161600000","ECCENTRICITY":"0.00030750","TLE_LINE2":"2 49147  70.0007  44.5873 0003075 267.3270  92.7536 14.96718551 45541","ELEMENT_SET_NO":"999","REV_AT_EPOCH":"4554","RA_OF_ASC_NODE":"44.5873"},{"MEAN_ANOMALY":"100.1046","COUNTRY_CODE":"US","ARG_OF_PERICENTER":"259.9788","TLE_LINE1":"1 49148U 21082U   22184.92814396  .00001298  00000-0  12136-3 0  9994","GP_ID":"207357145","MEAN_MOTION_DOT":"0.00001298","NORAD_CAT_ID":"49148","CENTER_NAME":"EARTH","SEMIMAJOR_AXIS":"6955.147","MEAN_ELEMENT_THEORY":"SGP4","EPOCH":"2022-07-03T22:16:31.638144","MEAN_MOTION":"14.96729400","APOAPSIS":"579.006","INCLINATION":"69.9995","OBJECT_TYPE":"PAYLOAD","SITE":"AFWTR","RCS_SIZE":"LARGE","PERIOD":"96.210","MEAN_MOTION_DDOT":"0.0000000000000","DECAY_DATE":null,"LAUNCH_DATE":"2021-09-14","PERIAPSIS":"575.018","EPHEMERIS_TYPE":"0","OBJECT_NAME":"STARLINK-3048","OBJECT_ID":"2021-082U","CLASSIFICATION_TYPE":"U","REF_FRAME":"TEME","FILE":"3507292","TIME_SYSTEM":"UTC","RA_OF_ASC_NODE":"64.7262","TLE_LINE2":"2 49148  69.9995  64.7262 0002867 259.9788 100.1046 14.96729400 45040","ELEMENT_SET_NO":"999","REV_AT_EPOCH":"4504","ECCENTRICITY":"0.00028670","BSTAR":"0.00012136000000"},{"NORAD_CAT_ID":"49149","CENTER_NAME":"EARTH","MEAN_MOTION_DOT":"0.00000917","EPOCH":"2022-07-03T21:14:24.961632","MEAN_MOTION":"14.98342634","APOAPSIS":"573.993","INCLINATION":"70.0004","SEMIMAJOR_AXIS":"6950.154","MEAN_ELEMENT_THEORY":"SGP4","COUNTRY_CODE":"US","ARG_OF_PERICENTER":"268.4477","MEAN_ANOMALY":"91.6357","GP_ID":"207357395","TLE_LINE1":"1 49149U 21082V   22184.88501113  .00000917  00000-0  84567-4 0  9995","REF_FRAME":"TEME","FILE":"3507292","OBJECT_ID":"2021-082V","OBJECT_NAME":"STARLINK-3053","EPHEMERIS_TYPE":"0","CLASSIFICATION_TYPE":"U","ELEMENT_SET_NO":"999","TLE_LINE2":"2 49149  70.0004  85.1755 0002840 268.4477  91.6357 14.98342634 45737","RA_OF_ASC_NODE":"85.1755","REV_AT_EPOCH":"4573","ECCENTRICITY":"0.00028400","BSTAR":"0.00008456700000","TIME_SYSTEM":"UTC","RCS_SIZE":"LARGE","PERIOD":"96.106","MEAN_MOTION_DDOT":"0.0000000000000","DECAY_DATE":null,"OBJECT_TYPE":"PAYLOAD","SITE":"AFWTR","PERIAPSIS":"570.045","LAUNCH_DATE":"2021-09-14"},{"LAUNCH_DATE":"2021-09-14","PERIAPSIS":"569.888","SITE":"AFWTR","OBJECT_TYPE":"PAYLOAD","DECAY_DATE":null,"RCS_SIZE":"LARGE","MEAN_MOTION_DDOT":"0.0000000000000","PERIOD":"96.106","TIME_SYSTEM":"UTC","BSTAR":"0.00015061000000","ECCENTRICITY":"0.00030650","TLE_LINE2":"2 49150  70.0003  85.1907 0003065 268.3076  91.7732 14.98342897 45730","RA_OF_ASC_NODE":"85.1907","ELEMENT_SET_NO":"999","REV_AT_EPOCH":"4573","CLASSIFICATION_TYPE":"U","OBJECT_NAME":"STARLINK-3104","OBJECT_ID":"2021-082W","EPHEMERIS_TYPE":"0","FILE":"3507292","REF_FRAME":"TEME","TLE_LINE1":"1 49150U 21082W   22184.88024674  .00001705  00000-0  15061-3 0  9997","GP_ID":"207358144","MEAN_ANOMALY":"91.7732","ARG_OF_PERICENTER":"268.3076","COUNTRY_CODE":"US","MEAN_ELEMENT_THEORY":"SGP4","SEMIMAJOR_AXIS":"6950.153","INCLINATION":"70.0003","APOAPSIS":"574.148","MEAN_MOTION":"14.98342897","EPOCH":"2022-07-03T21:07:33.318336","MEAN_MOTION_DOT":"0.00001705","CENTER_NAME":"EARTH","NORAD_CAT_ID":"49150"},{"MEAN_MOTION_DOT":"0.00001052","NORAD_CAT_ID":"49151","CENTER_NAME":"EARTH","SEMIMAJOR_AXIS":"6955.164","MEAN_ELEMENT_THEORY":"SGP4","EPOCH":"2022-07-03T20:42:09.347616","MEAN_MOTION":"14.96723934","APOAPSIS":"578.926","INCLINATION":"69.9978","MEAN_ANOMALY":"93.6110","COUNTRY_CODE":"US","ARG_OF_PERICENTER":"266.4736","TLE_LINE1":"1 49151U 21082X   22184.86260819  .00001052  00000-0  99889-4 0  9995","GP_ID":"207358881","OBJECT_NAME":"STARLINK-3102","OBJECT_ID":"2021-082X","EPHEMERIS_TYPE":"0","CLASSIFICATION_TYPE":"U","REF_FRAME":"TEME","FILE":"3507292","TIME_SYSTEM":"UTC","TLE_LINE2":"2 49151  69.9978  44.6513 0002728 266.4736  93.6110 14.96723934 46734","ELEMENT_SET_NO":"999","REV_AT_EPOCH":"4673","RA_OF_ASC_NODE":"44.6513","BSTAR":"0.00009988900000","ECCENTRICITY":"0.00027280","OBJECT_TYPE":"PAYLOAD","SITE":"AFWTR","PERIOD":"96.210","RCS_SIZE":"LARGE","MEAN_MOTION_DDOT":"0.0000000000000","DECAY_DATE":null,"LAUNCH_DATE":"2021-09-14","PERIAPSIS":"575.132"},{"TIME_SYSTEM":"UTC","TLE_LINE2":"2 49152  69.9993  44.5250 0002711 259.7073 100.3780 14.96728065 46661","RA_OF_ASC_NODE":"44.5250","REV_AT_EPOCH":"4666","ELEMENT_SET_NO":"999","BSTAR":"0.00009390000000","ECCENTRICITY":"0.00027110","EPHEMERIS_TYPE":"0","OBJECT_ID":"2021-082Y","OBJECT_NAME":"STARLINK-3081","CLASSIFICATION_TYPE":"U","REF_FRAME":"TEME","FILE":"3507292","LAUNCH_DATE":"2021-09-14","PERIAPSIS":"575.131","SITE":"AFWTR","OBJECT_TYPE":"PAYLOAD","DECAY_DATE":null,"RCS_SIZE":"LARGE","PERIOD":"96.210","MEAN_MOTION_DDOT":"0.0000000000000","MEAN_ELEMENT_THEORY":"SGP4","SEMIMAJOR_AXIS":"6955.151","MEAN_MOTION":"14.96728065","EPOCH":"2022-07-03T21:42:19.689120","INCLINATION":"69.9993","APOAPSIS":"578.902","MEAN_MOTION_DOT":"0.00000984","NORAD_CAT_ID":"49152","CENTER_NAME":"EARTH","GP_ID":"207357645","TLE_LINE1":"1 49152U 21082Y   22184.90439455  .00000984  00000-0  93900-4 0  9996","MEAN_ANOMALY":"100.3780","ARG_OF_PERICENTER":"259.7073","COUNTRY_CODE":"US"},{"MEAN_ANOMALY":"85.5948","ARG_OF_PERICENTER":"274.4885","COUNTRY_CODE":"US","GP_ID":"207357895","TLE_LINE1":"1 49153U 21082Z   22184.85282608  .00001098  00000-0  10388-3 0  9992","MEAN_MOTION_DOT":"0.00001098","CENTER_NAME":"EARTH","NORAD_CAT_ID":"49153","MEAN_ELEMENT_THEORY":"SGP4","SEMIMAJOR_AXIS":"6955.178","INCLINATION":"69.9993","APOAPSIS":"579.020","MEAN_MOTION":"14.96719400","EPOCH":"2022-07-03T20:28:04.173312","SITE":"AFWTR","OBJECT_TYPE":"PAYLOAD","DECAY_DATE":null,"PERIOD":"96.210","RCS_SIZE":"LARGE","MEAN_MOTION_DDOT":"0.0000000000000","LAUNCH_DATE":"2021-09-14","PERIAPSIS":"575.066","CLASSIFICATION_TYPE":"U","OBJECT_NAME":"STARLINK-3072","EPHEMERIS_TYPE":"0","OBJECT_ID":"2021-082Z","FILE":"3507292","REF_FRAME":"TEME","TIME_SYSTEM":"UTC","ECCENTRICITY":"0.00028430","BSTAR":"0.00010388000000","TLE_LINE2":"2 49153  69.9993  44.6794 0002843 274.4885  85.5948 14.96719400 46749","RA_OF_ASC_NODE":"44.6794","ELEMENT_SET_NO":"999","REV_AT_EPOCH":"4674"},{"TLE_LINE2":"2 49154  69.9982  64.7345 0003037 262.3664  97.7149 14.96716998 46129","RA_OF_ASC_NODE":"64.7345","REV_AT_EPOCH":"4612","ELEMENT_SET_NO":"999","BSTAR":"0.00013207000000","ECCENTRICITY":"0.00030370","TIME_SYSTEM":"UTC","REF_FRAME":"TEME","FILE":"3507292","OBJECT_NAME":"STARLINK-3068","OBJECT_ID":"2021-082AA","EPHEMERIS_TYPE":"0","CLASSIFICATION_TYPE":"U","PERIAPSIS":"574.938","LAUNCH_DATE":"2021-09-14","DECAY_DATE":null,"MEAN_MOTION_DDOT":"0.0000000000000","RCS_SIZE":"LARGE","PERIOD":"96.211","SITE":"AFWTR","OBJECT_TYPE":"PAYLOAD","MEAN_MOTION":"14.96716998","EPOCH":"2022-07-03T22:09:34.599168","INCLINATION":"69.9982","APOAPSIS":"579.163","MEAN_ELEMENT_THEORY":"SGP4","SEMIMAJOR_AXIS":"6955.185","NORAD_CAT_ID":"49154","CENTER_NAME":"EARTH","MEAN_MOTION_DOT":"0.00001420","TLE_LINE1":"1 49154U 21082AA  22184.92331712  .00001420  00000-0  13207-3 0  9994","GP_ID":"207358644","ARG_OF_PERICENTER":"262.3664","COUNTRY_CODE":"US","MEAN_ANOMALY":"97.7149"},{"MEAN_MOTION_DDOT":"0.0000000000000","RCS_SIZE":"LARGE","PERIOD":"96.209","DECAY_DATE":null,"OBJECT_TYPE":"PAYLOAD","SITE":"AFWTR","PERIAPSIS":"574.994","LAUNCH_DATE":"2021-09-14","FILE":"3507292","REF_FRAME":"TEME","CLASSIFICATION_TYPE":"U","OBJECT_ID":"2021-082AB","OBJECT_NAME":"STARLINK-3060","EPHEMERIS_TYPE":"0","BSTAR":"0.00014581000000","ECCENTRICITY":"0.00028310","REV_AT_EPOCH":"4662","TLE_LINE2":"2 49155  69.9969  44.4944 0002831 267.8022  92.2812 14.96745330 46628","RA_OF_ASC_NODE":"44.4944","ELEMENT_SET_NO":"999","TIME_SYSTEM":"UTC","COUNTRY_CODE":"US","ARG_OF_PERICENTER":"267.8022","MEAN_ANOMALY":"92.2812","TLE_LINE1":"1 49155U 21082AB  22184.91411023  .00001579  00000-0  14581-3 0  9999","GP_ID":"207358382","CENTER_NAME":"EARTH","NORAD_CAT_ID":"49155","MEAN_MOTION_DOT":"0.00001579","APOAPSIS":"578.932","INCLINATION":"69.9969","EPOCH":"2022-07-03T21:56:19.123872","MEAN_MOTION":"14.96745330","SEMIMAJOR_AXIS":"6955.098","MEAN_ELEMENT_THEORY":"SGP4"},{"EPHEMERIS_TYPE":"0","OBJECT_NAME":"STARLINK-3085","OBJECT_ID":"2021-082AC","CLASSIFICATION_TYPE":"U","REF_FRAME":"TEME","FILE":"3507292","TIME_SYSTEM":"UTC","TLE_LINE2":"2 49156  70.0000  44.5506 0002621 271.9013  88.1845 14.96723450 46625","RA_OF_ASC_NODE":"44.5506","ELEMENT_SET_NO":"999","REV_AT_EPOCH":"4662","ECCENTRICITY":"0.00026210","BSTAR":"0.00009880900000","OBJECT_TYPE":"PAYLOAD","SITE":"AFWTR","PERIOD":"96.210","RCS_SIZE":"LARGE","MEAN_MOTION_DDOT":"0.0000000000000","DECAY_DATE":null,"LAUNCH_DATE":"2021-09-14","PERIAPSIS":"575.208","MEAN_MOTION_DOT":"0.00001040","NORAD_CAT_ID":"49156","CENTER_NAME":"EARTH","SEMIMAJOR_AXIS":"6955.165","MEAN_ELEMENT_THEORY":"SGP4","EPOCH":"2022-07-03T21:28:21.356832","MEAN_MOTION":"14.96723450","APOAPSIS":"578.853","INCLINATION":"70.0000","MEAN_ANOMALY":"88.1845","COUNTRY_CODE":"US","ARG_OF_PERICENTER":"271.9013","TLE_LINE1":"1 49156U 21082AC  22184.89469163  .00001040  00000-0  98809-4 0  9994","GP_ID":"207357146"}];
